[{"OBJECT_NAME":"STARLINK-34803","OBJECT_ID":"2025-165D","EPOCH":"2026-03-09T16:53:36.921120","MEAN_MOTION":15.05648567,"ECCENTRICITY":4.908e-5,"INCLINATION":97.6034,"RA_OF_ASC_NODE":147.2595,"ARG_OF_PERICENTER":122.652,"MEAN_ANOMALY":237.4754,"EPHEMERIS_TYPE":0,"CLASSIFICATION_TYPE":"U","NORAD_CAT_ID":65059,"ELEMENT_SET_NO":999,"REV_AT_EPOCH":3479,"BSTAR":0.00030325473,"MEAN_MOTION_DOT":4.317e-5,"MEAN_MOTION_DDOT":0},{"OBJECT_NAME":"SL-6 R\/B(2)","OBJECT_ID":"1990-055D","EPOCH":"2026-03-09T21:41:59.551872","MEAN_MOTION":15.03595553,"ECCENTRICITY":0.00247741,"INCLINATION":62.7825,"RA_OF_ASC_NODE":253.121,"ARG_OF_PERICENTER":347.1508,"MEAN_ANOMALY":12.8957,"EPHEMERIS_TYPE":0,"CLASSIFICATION_TYPE":"U","NORAD_CAT_ID":20666,"ELEMENT_SET_NO":999,"REV_AT_EPOCH":93822,"BSTAR":0.00020900577,"MEAN_MOTION_DOT":2.688e-5,"MEAN_MOTION_DDOT":0}]
